[{"OBJECT_NAME":"STARLINK-3754","OBJECT_ID":"2022-045V","EPOCH":"2026-03-09T15:07:16.053888","MEAN_MOTION":15.08840526,"ECCENTRICITY":0.0001534,"INCLINATION":53.2182,"RA_OF_ASC_NODE":199.3909,"ARG_OF_PERICENTER":85.3436,"MEAN_ANOMALY":274.7731,"EPHEMERIS_TYPE":0,"CLASSIFICATION_TYPE":"U","NORAD_CAT_ID":52350,"ELEMENT_SET_NO":999,"REV_AT_EPOCH":21577,"BSTAR":-2.1957e-6,"MEAN_MOTION_DOT":-3.23e-6,"MEAN_MOTION_DDOT":0},{"OBJECT_NAME":"FENGYUN 1C DEB","OBJECT_ID":"1999-025EMJ","EPOCH":"2026-03-09T03:39:09.279936","MEAN_MOTION":15.01174269,"ECCENTRICITY":0.00472088,"INCLINATION":98.7318,"RA_OF_ASC_NODE":38.98,"ARG_OF_PERICENTER":180.721,"MEAN_ANOMALY":242.109,"EPHEMERIS_TYPE":0,"CLASSIFICATION_TYPE":"U","NORAD_CAT_ID":37717,"ELEMENT_SET_NO":999,"REV_AT_EPOCH":90691,"BSTAR":0.0034859906,"MEAN_MOTION_DOT":0.00045969,"MEAN_MOTION_DDOT":0}]
